[{"OBJECT_NAME":"STARLINK-32653","OBJECT_ID":"2024-229H","EPOCH":"2026-03-09T20:12:47.437344","MEAN_MOTION":15.27565953,"ECCENTRICITY":0.00010941,"INCLINATION":42.9969,"RA_OF_ASC_NODE":262.9749,"ARG_OF_PERICENTER":273.8257,"MEAN_ANOMALY":86.2469,"EPHEMERIS_TYPE":0,"CLASSIFICATION_TYPE":"U","NORAD_CAT_ID":62199,"ELEMENT_SET_NO":999,"REV_AT_EPOCH":7066,"BSTAR":0.00085986176,"MEAN_MOTION_DOT":0.00023465,"MEAN_MOTION_DDOT":0},{"OBJECT_NAME":"BANDWAGON-4 OBJECT P","OBJECT_ID":"2025-248P","EPOCH":"2026-03-08T23:32:23.805312","MEAN_MOTION":15.24098352,"ECCENTRICITY":0.00120788,"INCLINATION":45.4037,"RA_OF_ASC_NODE":295.4322,"ARG_OF_PERICENTER":209.3167,"MEAN_ANOMALY":150.7044,"EPHEMERIS_TYPE":0,"CLASSIFICATION_TYPE":"U","NORAD_CAT_ID":66306,"ELEMENT_SET_NO":999,"REV_AT_EPOCH":1929,"BSTAR":0.00092291021,"MEAN_MOTION_DOT":0.00022647,"MEAN_MOTION_DDOT":0}]
