STARLINK-32653          
1 62199U 24229H   26068.84221571  .00023465  00000+0  85986-3 0  9996
2 62199  42.9969 262.9749 0001094 273.8257  86.2469 15.27565953 70667
BANDWAGON-4 OBJECT P    
1 66306U 25248P   26067.98083108  .00022647  00000+0  92291-3 0  9996
2 66306  45.4037 295.4322 0012078 209.3167 150.7044 15.24098352 19290
